25676,GLOBALSTAR M045,1999,117.36,-1.0,-,52.0,Inactive,0,LEO,Kazakhstan,Globalstar,Unknown,Unknown,Soyuz,1 25676U 99019A   23253.55249951 -.00000068  00000+0  22689-3 0  9993,2 25676  52.0000 345.3931 0000792  55.5070  51.5900 12.27014829114139,12.27014829,7.92e-05,LEO
25677,GLOBALSTAR M019,1999,118.63,-1.0,-,51.99,Inactive,0,LEO,Kazakhstan,Globalstar,Unknown,Unknown,Soyuz,1 25677U 99019B   23253.43276073 -.00000151  00000+0 -63315-3 0  9991,2 25677  51.9880  70.6780 0001863  88.9199 283.1713 12.13846134106724,12.13846134,0.0001863,LEO
25678,GLOBALSTAR M044,1999,120.99,-1.0,-,52.0,Inactive,0,LEO,Kazakhstan,Globalstar,Unknown,Unknown,Soyuz,1 25678U 99019C   23253.57086354 -.00000120  00000+0 -50869-3 0  9994,2 25678  51.9974 300.8920 0006303 232.3487 280.2573 11.90222363 94445,11.90222363,0.0006303,LEO
25679,GLOBALSTAR M042,1999,117.84,-1.0,-,52.0,Inactive,0,LEO,Kazakhstan,Globalstar,Unknown,Unknown,Soyuz,1 25679U 99019D   23253.26992539 -.00000066  00000+0  24905-3 0  9992,2 25679  52.0012  74.3335 0003843  56.9091 114.1611 12.22046419106287,12.22046419,0.0003843,LEO
25770,GLOBALSTAR M025,1999,128.28,-1.0,-,51.98,Inactive,0,MEO,USA,Globalstar,Unknown,Unknown,Delta,1 25770U 99031A   23253.30714625 -.00000056  00000+0  34605-3 0  9998,2 25770  51.9790 215.4852 0001012 124.9196  46.3268 11.22544577409175,11.22544577,0.0001012,MEO
25771,GLOBALSTAR M049,1999,129.49,-1.0,-,51.98,Inactive,0,MEO,USA,Globalstar,Unknown,Unknown,Delta,1 25771U 99031B   23253.27463133 -.00000049  00000+0  55851-3 0  9998,2 25771  51.9843 217.8622 0002938   2.2559 357.8250 11.12095997 45561,11.12095997,0.0002938,MEO
25772,GLOBALSTAR M047,1999,127.22,-1.0,-,51.98,Inactive,0,LEO,USA,Globalstar,Unknown,Unknown,Delta,1 25772U 99031C   23253.52876219 -.00000044  00000+0  71314-3 0  9997,2 25772  51.9816 275.9427 0016323 234.2083 125.7205 11.31915140397993,11.3191514,0.0016323,LEO
25773,GLOBALSTAR M052,1999,129.14,-1.0,-,51.99,Inactive,0,MEO,USA,Globalstar,Unknown,Unknown,Delta,1 25773U 99031D   23253.62643427 -.00000028  00000+0  12751-2 0  9993,2 25773  51.9904 334.8174 0002688 174.7130 330.2745 11.15045171406494,11.15045171,0.0002688,MEO
